ONEWEB-0656             
1 55817U 23029X   24165.42381150 -.00000395  00000+0 -10028-2 0  9995
2 55817  87.9215  60.4019 0001291  71.6788 288.4486 13.20774799 64975
ONEWEB-0657             
1 55818U 23029Y   24165.31805878  .00000078  00000+0  16343-3 0  9995
2 55818  87.9157  91.0200 0001632  53.6813 306.4470 13.19724340 62798
ONEWEB-0658             
1 55819U 23029Z   24165.16170155  .00000022  00000+0  23244-4 0  9990
2 55819  87.9157  90.9868 0002640  73.7739 286.3684 13.19725218 62784
ONEWEB-0660             
1 55820U 23029AA  24165.50345667  .00000185  00000+0  46317-3 0  9997
2 55820  87.8968  75.6495 0002436  86.8944 273.2464 13.14503852 63726
ONEWEB-0661             
1 55821U 23029AB  24165.46222426 -.00000052  00000+0 -17413-3 0  9990
2 55821  87.8972  75.7242 0002294  89.3810 270.7583 13.14502381 63680
ONEWEB-0662             
1 55822U 23029AC  24165.49710258  .00000120  00000+0  28886-3 0  9999
2 55822  87.8971  75.7251 0002354  83.1339 277.0059 13.14504478 63750
ONEWEB-0663             
1 55823U 23029AD  24165.41686775  .00000094  00000+0  19933-3 0  9991
2 55823  87.9220  60.4637 0002340  83.6458 276.4941 13.20787847 64967
ONEWEB-0664             
1 55824U 23029AE  24165.41119324  .00000045  00000+0  79495-4 0  9999
2 55824  87.9220  60.4781 0001942  95.8783 264.2572 13.20771541 64971
